[{"OBJECT_NAME":"COSMOS 2509 (RODNIK-S 15)","OBJECT_ID":"2015-050C","EPOCH":"2026-03-09T22:54:13.887360","MEAN_MOTION":12.42930668,"ECCENTRICITY":0.00133619,"INCLINATION":82.4893,"RA_OF_ASC_NODE":140.0933,"ARG_OF_PERICENTER":255.6578,"MEAN_ANOMALY":104.3019,"EPHEMERIS_TYPE":0,"CLASSIFICATION_TYPE":"U","NORAD_CAT_ID":40922,"ELEMENT_SET_NO":999,"REV_AT_EPOCH":47455,"BSTAR":0.00051118704,"MEAN_MOTION_DOT":8.1e-7,"MEAN_MOTION_DDOT":0},{"OBJECT_NAME":"DELTA 1 DEB","OBJECT_ID":"1973-086GZ","EPOCH":"2026-03-07T07:50:55.646016","MEAN_MOTION":12.3981366,"ECCENTRICITY":0.0111029,"INCLINATION":101.8432,"RA_OF_ASC_NODE":24.6322,"ARG_OF_PERICENTER":205.1837,"MEAN_ANOMALY":317.7512,"EPHEMERIS_TYPE":0,"CLASSIFICATION_TYPE":"U","NORAD_CAT_ID":18671,"ELEMENT_SET_NO":999,"REV_AT_EPOCH":62380,"BSTAR":0.00043169,"MEAN_MOTION_DOT":1.5e-7,"MEAN_MOTION_DDOT":0}]
